[{"OBJECT_NAME":"HST","OBJECT_ID":"1990-037B","EPOCH":"2026-03-09T03:50:04.164288","MEAN_MOTION":15.29473555,"ECCENTRICITY":0.00018372,"INCLINATION":28.4717,"RA_OF_ASC_NODE":43.6133,"ARG_OF_PERICENTER":120.9992,"MEAN_ANOMALY":239.0785,"EPHEMERIS_TYPE":0,"CLASSIFICATION_TYPE":"U","NORAD_CAT_ID":20580,"ELEMENT_SET_NO":999,"REV_AT_EPOCH":77323,"BSTAR":0.0003002261,"MEAN_MOTION_DOT":9.063e-5,"MEAN_MOTION_DDOT":0},{"OBJECT_NAME":"STARLINK-35636","OBJECT_ID":"2025-240Q","EPOCH":"2026-03-09T06:57:26.020800","MEAN_MOTION":15.30193151,"ECCENTRICITY":0.00012597,"INCLINATION":53.1594,"RA_OF_ASC_NODE":64.9254,"ARG_OF_PERICENTER":85.355,"MEAN_ANOMALY":274.7594,"EPHEMERIS_TYPE":0,"CLASSIFICATION_TYPE":"U","NORAD_CAT_ID":66160,"ELEMENT_SET_NO":999,"REV_AT_EPOCH":2192,"BSTAR":0.00096814217,"MEAN_MOTION_DOT":0.00028418,"MEAN_MOTION_DDOT":0}]
